SES-15                  
1 42709U 17026A   25334.05178587  .00000082  00000+0  00000+0 0  9994
2 42709   0.0206 336.5245 0000249 266.3924  75.7420  1.00267685  5439
QZS-2 (MICHIBIKI-2)     
1 42738U 17028A   25333.62753066 -.00000160  00000+0  00000+0 0  9999
2 42738  39.7358 246.0747 0759726 269.3342 280.5316  1.00286520  5628
QZS-3 (MICHIBIKI-3)     
1 42917U 17048A   25334.05600421 -.00000327  00000+0  00000+0 0  9999
2 42917   0.0884 123.5557 0001173 121.9031 330.8706  1.00266220 30269
QZS-4 (MICHIBIKI-4)     
1 42965U 17062A   25333.54997992 -.00000301  00000+0  00000+0 0  9995
2 42965  40.2336 346.0421 0752251 271.1720 146.8651  1.00256332 29800
IRNSS-1I                
1 43286U 18035A   25333.87428972  .00000102  00000+0  00000+0 0  9994
2 43286  29.1184  77.3003 0021519 181.3940 180.1762  1.00276938 28083
EUTELSAT 5 WEST B       
1 44624U 19067A   25334.07639933 -.00000021  00000+0  00000+0 0  9992
2 44624   0.0628 346.9866 0003425 261.7331 203.0068  1.00271190 22449
GALAXY 30 (G-30)        
1 46114U 20056C   25334.05265252  .00000058  00000+0  00000+0 0  9994
2 46114   0.0191 319.2907 0002283 288.0634  75.7913  1.00272043 19298
QZS-1R (MICHIBIKI-1R)   
1 49336U 21096A   25333.64877256 -.00000205  00000+0  00000+0 0  9990
2 49336  37.0489  82.5561 0753161 271.0408  84.1935  1.00261542 15018
