{
  "type": "FeatureCollection",
  "features": [
    {
      "type": "Feature",
      "properties": {
        "OBJECT_NAME": "SES-15 (WAAS/PRN 133)",
        "OBJECT_ID": "2017-026A",
        "EPOCH": "2025-11-30T01:14:34.299168",
        "MEAN_MOTION": 1.00267685,
        "ECCENTRICITY": 2.49e-05,
        "INCLINATION": 0.0206,
        "RA_OF_ASC_NODE": 336.5245,
        "ARG_OF_PERICENTER": 266.3924,
        "MEAN_ANOMALY": 75.742,
        "EPHEMERIS_TYPE": 0,
        "CLASSIFICATION_TYPE": "U",
        "NORAD_CAT_ID": 42709,
        "ELEMENT_SET_NO": 999,
        "REV_AT_EPOCH": 543,
        "BSTAR": 0,
        "MEAN_MOTION_DOT": 8.2e-07,
        "MEAN_MOTION_DDOT": 0,
        "norad_id": 42709,
        "name": "SES-15 (WAAS/PRN 133)",
        "group": "gnss",
        "longitude_deg": NaN,
        "latitude_deg": NaN,
        "alt_km": NaN,
        "orbit_class": "HEO",
        "timestamp": "2025-11-30T09:33:02.506697+00:00"
      },
      "geometry": {
        "type": "Point",
        "coordinates": [
          NaN,
          NaN
        ]
      }
    },
    {
      "type": "Feature",
      "properties": {
        "OBJECT_NAME": "QZS-2 (QZSS/PRN 194)",
        "OBJECT_ID": "2017-028A",
        "EPOCH": "2025-11-29T15:03:38.649024",
        "MEAN_MOTION": 1.0028652,
        "ECCENTRICITY": 0.0759726,
        "INCLINATION": 39.7358,
        "RA_OF_ASC_NODE": 246.0747,
        "ARG_OF_PERICENTER": 269.3342,
        "MEAN_ANOMALY": 280.5316,
        "EPHEMERIS_TYPE": 0,
        "CLASSIFICATION_TYPE": "U",
        "NORAD_CAT_ID": 42738,
        "ELEMENT_SET_NO": 999,
        "REV_AT_EPOCH": 562,
        "BSTAR": 0,
        "MEAN_MOTION_DOT": -1.6e-06,
        "MEAN_MOTION_DDOT": 0,
        "norad_id": 42738,
        "name": "QZS-2 (QZSS/PRN 194)",
        "group": "gnss",
        "longitude_deg": NaN,
        "latitude_deg": NaN,
        "alt_km": NaN,
        "orbit_class": "HEO",
        "timestamp": "2025-11-30T09:33:02.506714+00:00"
      },
      "geometry": {
        "type": "Point",
        "coordinates": [
          NaN,
          NaN
        ]
      }
    },
    {
      "type": "Feature",
      "properties": {
        "OBJECT_NAME": "QZS-3 (QZSS/PRN 199)",
        "OBJECT_ID": "2017-048A",
        "EPOCH": "2025-11-30T01:20:38.763744",
        "MEAN_MOTION": 1.0026622,
        "ECCENTRICITY": 0.0001173,
        "INCLINATION": 0.0884,
        "RA_OF_ASC_NODE": 123.5557,
        "ARG_OF_PERICENTER": 121.9031,
        "MEAN_ANOMALY": 330.8706,
        "EPHEMERIS_TYPE": 0,
        "CLASSIFICATION_TYPE": "U",
        "NORAD_CAT_ID": 42917,
        "ELEMENT_SET_NO": 999,
        "REV_AT_EPOCH": 3026,
        "BSTAR": 0,
        "MEAN_MOTION_DOT": -3.27e-06,
        "MEAN_MOTION_DDOT": 0,
        "norad_id": 42917,
        "name": "QZS-3 (QZSS/PRN 199)",
        "group": "gnss",
        "longitude_deg": NaN,
        "latitude_deg": NaN,
        "alt_km": NaN,
        "orbit_class": "HEO",
        "timestamp": "2025-11-30T09:33:02.506967+00:00"
      },
      "geometry": {
        "type": "Point",
        "coordinates": [
          NaN,
          NaN
        ]
      }
    },
    {
      "type": "Feature",
      "properties": {
        "OBJECT_NAME": "QZS-4 (QZSS/PRN 195)",
        "OBJECT_ID": "2017-062A",
        "EPOCH": "2025-11-29T13:11:58.265088",
        "MEAN_MOTION": 1.00256332,
        "ECCENTRICITY": 0.0752251,
        "INCLINATION": 40.2336,
        "RA_OF_ASC_NODE": 346.0421,
        "ARG_OF_PERICENTER": 271.172,
        "MEAN_ANOMALY": 146.8651,
        "EPHEMERIS_TYPE": 0,
        "CLASSIFICATION_TYPE": "U",
        "NORAD_CAT_ID": 42965,
        "ELEMENT_SET_NO": 999,
        "REV_AT_EPOCH": 2980,
        "BSTAR": 0,
        "MEAN_MOTION_DOT": -3.01e-06,
        "MEAN_MOTION_DDOT": 0,
        "norad_id": 42965,
        "name": "QZS-4 (QZSS/PRN 195)",
        "group": "gnss",
        "longitude_deg": NaN,
        "latitude_deg": NaN,
        "alt_km": NaN,
        "orbit_class": "HEO",
        "timestamp": "2025-11-30T09:33:02.507113+00:00"
      },
      "geometry": {
        "type": "Point",
        "coordinates": [
          NaN,
          NaN
        ]
      }
    },
    {
      "type": "Feature",
      "properties": {
        "OBJECT_NAME": "IRNSS-1I",
        "OBJECT_ID": "2018-035A",
        "EPOCH": "2025-11-29T20:58:58.631808",
        "MEAN_MOTION": 1.00276938,
        "ECCENTRICITY": 0.0021519,
        "INCLINATION": 29.1184,
        "RA_OF_ASC_NODE": 77.3003,
        "ARG_OF_PERICENTER": 181.394,
        "MEAN_ANOMALY": 180.1762,
        "EPHEMERIS_TYPE": 0,
        "CLASSIFICATION_TYPE": "U",
        "NORAD_CAT_ID": 43286,
        "ELEMENT_SET_NO": 999,
        "REV_AT_EPOCH": 2808,
        "BSTAR": 0,
        "MEAN_MOTION_DOT": 1.02e-06,
        "MEAN_MOTION_DDOT": 0,
        "norad_id": 43286,
        "name": "IRNSS-1I",
        "group": "gnss",
        "longitude_deg": NaN,
        "latitude_deg": NaN,
        "alt_km": NaN,
        "orbit_class": "HEO",
        "timestamp": "2025-11-30T09:33:02.507820+00:00"
      },
      "geometry": {
        "type": "Point",
        "coordinates": [
          NaN,
          NaN
        ]
      }
    },
    {
      "type": "Feature",
      "properties": {
        "OBJECT_NAME": "EUTELSAT 5 WEST B (EGNOS/PRN 121)",
        "OBJECT_ID": "2019-067A",
        "EPOCH": "2025-11-30T01:50:00.902112",
        "MEAN_MOTION": 1.0027119,
        "ECCENTRICITY": 0.0003425,
        "INCLINATION": 0.0628,
        "RA_OF_ASC_NODE": 346.9866,
        "ARG_OF_PERICENTER": 261.7331,
        "MEAN_ANOMALY": 203.0068,
        "EPHEMERIS_TYPE": 0,
        "CLASSIFICATION_TYPE": "U",
        "NORAD_CAT_ID": 44624,
        "ELEMENT_SET_NO": 999,
        "REV_AT_EPOCH": 2244,
        "BSTAR": 0,
        "MEAN_MOTION_DOT": -2.1e-07,
        "MEAN_MOTION_DDOT": 0,
        "norad_id": 44624,
        "name": "EUTELSAT 5 WEST B (EGNOS/PRN 121)",
        "group": "gnss",
        "longitude_deg": NaN,
        "latitude_deg": NaN,
        "alt_km": NaN,
        "orbit_class": "HEO",
        "timestamp": "2025-11-30T09:33:02.509425+00:00"
      },
      "geometry": {
        "type": "Point",
        "coordinates": [
          NaN,
          NaN
        ]
      }
    },
    {
      "type": "Feature",
      "properties": {
        "OBJECT_NAME": "GALAXY 30 (WAAS/PRN 135)",
        "OBJECT_ID": "2020-056C",
        "EPOCH": "2025-11-30T01:15:49.177728",
        "MEAN_MOTION": 1.00272043,
        "ECCENTRICITY": 0.0002283,
        "INCLINATION": 0.0191,
        "RA_OF_ASC_NODE": 319.2907,
        "ARG_OF_PERICENTER": 288.0634,
        "MEAN_ANOMALY": 75.7913,
        "EPHEMERIS_TYPE": 0,
        "CLASSIFICATION_TYPE": "U",
        "NORAD_CAT_ID": 46114,
        "ELEMENT_SET_NO": 999,
        "REV_AT_EPOCH": 1929,
        "BSTAR": 0,
        "MEAN_MOTION_DOT": 5.8e-07,
        "MEAN_MOTION_DDOT": 0,
        "norad_id": 46114,
        "name": "GALAXY 30 (WAAS/PRN 135)",
        "group": "gnss",
        "longitude_deg": NaN,
        "latitude_deg": NaN,
        "alt_km": NaN,
        "orbit_class": "HEO",
        "timestamp": "2025-11-30T09:33:02.512166+00:00"
      },
      "geometry": {
        "type": "Point",
        "coordinates": [
          NaN,
          NaN
        ]
      }
    },
    {
      "type": "Feature",
      "properties": {
        "OBJECT_NAME": "QZS-1R (QZSS/PRN 196)",
        "OBJECT_ID": "2021-096A",
        "EPOCH": "2025-11-29T15:34:13.949184",
        "MEAN_MOTION": 1.00261542,
        "ECCENTRICITY": 0.0753161,
        "INCLINATION": 37.0489,
        "RA_OF_ASC_NODE": 82.5561,
        "ARG_OF_PERICENTER": 271.0408,
        "MEAN_ANOMALY": 84.1935,
        "EPHEMERIS_TYPE": 0,
        "CLASSIFICATION_TYPE": "U",
        "NORAD_CAT_ID": 49336,
        "ELEMENT_SET_NO": 999,
        "REV_AT_EPOCH": 1501,
        "BSTAR": 0,
        "MEAN_MOTION_DOT": -2.05e-06,
        "MEAN_MOTION_DDOT": 0,
        "norad_id": 49336,
        "name": "QZS-1R (QZSS/PRN 196)",
        "group": "gnss",
        "longitude_deg": NaN,
        "latitude_deg": NaN,
        "alt_km": NaN,
        "orbit_class": "HEO",
        "timestamp": "2025-11-30T09:33:02.519561+00:00"
      },
      "geometry": {
        "type": "Point",
        "coordinates": [
          NaN,
          NaN
        ]
      }
    }
  ]
}